[{"OBJECT_NAME":"LEAP-1","OBJECT_ID":"2025-188G","EPOCH":"2026-03-09T22:53:24.912384","MEAN_MOTION":14.91029784,"ECCENTRICITY":0.00036947,"INCLINATION":97.7428,"RA_OF_ASC_NODE":145.2206,"ARG_OF_PERICENTER":154.4312,"MEAN_ANOMALY":205.709,"EPHEMERIS_TYPE":0,"CLASSIFICATION_TYPE":"U","NORAD_CAT_ID":65321,"ELEMENT_SET_NO":999,"REV_AT_EPOCH":2906,"BSTAR":0.00043957921,"MEAN_MOTION_DOT":4.295e-5,"MEAN_MOTION_DDOT":0},{"OBJECT_NAME":"COSMOS 2251 DEB","OBJECT_ID":"1993-036BSM","EPOCH":"2026-03-05T18:25:12.242784","MEAN_MOTION":14.77934954,"ECCENTRICITY":0.01163021,"INCLINATION":73.9376,"RA_OF_ASC_NODE":193.5346,"ARG_OF_PERICENTER":49.2659,"MEAN_ANOMALY":311.8542,"EPHEMERIS_TYPE":0,"CLASSIFICATION_TYPE":"U","NORAD_CAT_ID":38197,"ELEMENT_SET_NO":999,"REV_AT_EPOCH":86980,"BSTAR":0.0037051809,"MEAN_MOTION_DOT":0.00029983,"MEAN_MOTION_DDOT":0}]
